H1 CPF 01  gfz 2022 09 14 12  7572 terrasarx 
H2 0702601  6201 31698    2022 09 14 12 59 42 2022 09 19 00 00 42   120 1 1  0 0 0
H9
10 0 59837  10062.000000  0    4245961.978   4088233.929  -3574847.904
10 0 59837  10182.000000  0    4000606.142   3595377.503  -4312448.526
10 0 59837  10302.000000  0    3676537.346   3044968.177  -4974509.870
10 0 59837  10422.000000  0    3278549.496   2447971.923  -5549526.442
10 0 59837  10542.000000  0    2812902.118   1816043.793  -6027533.611
10 0 59837  10662.000000  0    2287216.345   1161298.219  -6400269.638
10 0 59837  10782.000000  0    1710346.046    496077.372  -6661306.126
10 0 59837  10902.000000  0    1092228.573   -167277.791  -6806147.997
10 0 59837  11022.000000  0     443714.487   -816652.227  -6832304.267
10 0 59837  11142.000000  0    -223620.363  -1440373.123  -6739324.453
10 0 59837  11262.000000  0    -897675.671  -2027413.379  -6528805.028
10 0 59837  11382.000000  0   -1566040.802  -2567582.335  -6204366.335
10 0 59837  11502.000000  0   -2216218.129  -3051700.718  -5771596.540
10 0 59837  11622.000000  0   -2835851.866  -3471756.140  -5237965.527
10 0 59837  11742.000000  0   -3412961.494  -3821039.037  -4612708.544
10 0 59837  11862.000000  0   -3936174.810  -4094254.913  -3906676.953
10 0 59837  11982.000000  0   -4394954.672  -4287610.008  -3132159.488
10 0 59837  12102.000000  0   -4779816.041  -4398869.129  -2302675.387
10 0 59837  12222.000000  0   -5082527.418  -4427382.959  -1432741.527
10 0 59837  12342.000000  0   -5296291.574  -4374083.865   -537617.978
10 0 59837  12462.000000  0   -5415900.844  -4241449.966    366963.402
10 0 59837  12582.000000  0   -5437862.594  -4033437.931   1265082.809
10 0 59837  12702.000000  0   -5360489.939  -3755384.656   2140922.517
10 0 59837  12822.000000  0   -5183955.426  -3413880.249   2979054.707
10 0 59837  12942.000000  0   -4910306.950  -3016616.890   3764720.797
10 0 59837  13062.000000  0   -4543445.783  -2572217.137   4484097.534
10 0 59837  13182.000000  0   -4089066.227  -2090045.372   5124542.944
10 0 59837  13302.000000  0   -3554561.003  -1580009.141   5674816.665
10 0 59837  13422.000000  0   -2948895.303  -1052354.847   6125274.580
10 0 59837  13542.000000  0   -2282449.829   -517460.203   6468034.536
10 0 59837  13662.000000  0   -1566836.254     14371.565   6697107.880
10 0 59837  13782.000000  0    -814691.178    533108.957   6808496.559
10 0 59837  13902.000000  0     -39452.402   1029179.853   6800258.492
10 0 59837  14022.000000  0     744880.682   1493647.530   6672539.346
10 0 59837  14142.000000  0    1523999.239   1918371.829   6427570.156
10 0 59837  14262.000000  0    2283545.172   2296151.823   6069630.086
10 0 59837  14382.000000  0    3009375.318   2620848.497   5604976.951
10 0 59837  14502.000000  0    3687827.329   2887486.543   5041744.392
10 0 59837  14622.000000  0    4305980.312   3092332.753   4389804.549
10 0 59837  14742.000000  0    4851905.009   3232949.233   3660600.904
10 0 59837  14862.000000  0    5314903.569   3308221.450   2866951.249
10 0 59837  14982.000000  0    5685726.460   3318356.919   2022820.159
10 0 59837  15102.000000  0    5956763.072   3264857.816   1143071.025
10 0 59837  15222.000000  0    6122203.074   3150466.703    243197.956
10 0 59837  15342.000000  0    6178161.636   2979085.459   -660955.935
10 0 59837  15462.000000  0    6122765.921   2755669.425  -1553486.304
10 0 59837  15582.000000  0    5956200.607   2486101.563  -2418714.494
10 0 59837  15702.000000  0    5680713.145   2177050.129  -3241469.582
10 0 59837  15822.000000  0    5300577.487   1835811.013  -4007358.313
10 0 59837  15942.000000  0    4822018.288   1470140.162  -4703017.970
10 0 59837  16062.000000  0    4253096.428   1088080.614  -5316345.521
10 0 59837  16182.000000  0    3603562.830    697789.521  -5836699.898
10 0 59837  16302.000000  0    2884682.981    307367.884  -6255077.223
10 0 59837  16422.000000  0    2109035.097    -75303.325  -6564255.189
10 0 59837  16542.000000  0    1290288.570   -442717.624  -6758906.225
10 0 59837  16662.000000  0     442964.841   -787886.148  -6835681.106
10 0 59837  16782.000000  0    -417817.240  -1104466.578  -6793259.386
10 0 59837  16902.000000  0   -1276604.203  -1386875.998  -6632368.905
10 0 59837  17022.000000  0   -2117878.960  -1630387.103  -6355775.545
10 0 59837  17142.000000  0   -2926335.193  -1831206.134  -5968240.003
10 0 59837  17262.000000  0   -3687149.920  -1986531.378  -5476444.741
10 0 59837  17382.000000  0   -4386254.640  -2094592.620  -4888891.213
10 0 59837  17502.000000  0   -5010598.612  -2154669.266  -4215763.974
10 0 59837  17622.000000  0   -5548398.234  -2167087.028  -3468764.852
10 0 59837  17742.000000  0   -5989368.766  -2133193.026  -2660917.725
10 0 59837  17862.000000  0   -6324931.564  -2055308.877  -1806345.964
10 0 59837  17982.000000  0   -6548392.152  -1936662.856   -920026.767
10 0 59837  18102.000000  0   -6655083.708  -1781302.324    -17525.829
10 0 59837  18222.000000  0   -6642472.008  -1593988.205    885281.993
10 0 59837  18342.000000  0   -6510217.818  -1380073.718   1772500.457
10 0 59837  18462.000000  0   -6260194.623  -1145371.133   2628501.169
10 0 59837  18582.000000  0   -5896461.530   -896009.853   3438207.410
10 0 59837  18702.000000  0   -5425192.468   -638288.724   4187367.308
10 0 59837  18822.000000  0   -4854561.312   -378527.285   4862809.046
10 0 59837  18942.000000  0   -4194590.171   -122919.894   5452671.750
10 0 59837  19062.000000  0   -3456964.884    122604.724   5946612.027
10 0 59837  19182.000000  0   -2654818.803    352514.853   6335981.597
10 0 59837  19302.000000  0   -1802491.761    561794.759   6613972.666
10 0 59837  19422.000000  0    -915268.824    746049.555   6775731.313
10 0 59837  19542.000000  0      -9104.030    901594.817   6818436.079
10 0 59837  19662.000000  0     899666.023   1025528.510   6741343.461
10 0 59837  19782.000000  0    1794615.483   1115784.987   6545800.140
10 0 59837  19902.000000  0    2659525.108   1171169.705   6235220.896
10 0 59837  20022.000000  0    3478676.358   1191373.956   5815033.487
10 0 59837  20142.000000  0    4237139.839   1176969.626   5292588.642
10 0 59837  20262.000000  0    4921050.444   1129384.149   4677037.473
10 0 59837  20382.000000  0    5517868.478   1050856.104   3979178.777
10 0 59837  20502.000000  0    6016620.102    944372.373   3211272.618
10 0 59837  20622.000000  0    6408108.420    813587.689   2386824.676
10 0 59837  20742.000000  0    6685092.090    662727.958   1520347.876
10 0 59837  20862.000000  0    6842428.448    496480.813    627101.676
10 0 59837  20982.000000  0    6877174.041    319874.779   -277183.591
10 0 59837  21102.000000  0    6788642.107    138150.622  -1176593.008
10 0 59837  21222.000000  0    6578413.201    -43371.514  -2055316.218
10 0 59837  21342.000000  0    6250300.133   -219426.253  -2897932.580
10 0 59837  21462.000000  0    5810269.477   -384934.908  -3689686.567
10 0 59837  21582.000000  0    5266321.107   -535131.457  -4416748.223
10 0 59837  21702.000000  0    4628329.213   -665679.065  -5066452.425
10 0 59837  21822.000000  0    3907851.467   -772774.802  -5627512.924
10 0 59837  21942.000000  0    3117910.475   -853241.696  -6090210.102
10 0 59837  22062.000000  0    2272751.237   -904605.363  -6446548.876
10 0 59837  22182.000000  0    1387581.284   -925152.784  -6690384.955
10 0 59837  22302.000000  0     478298.581   -913974.782  -6817520.467
10 0 59837  22422.000000  0    -438790.258   -870989.958  -6825768.766
10 0 59837  22542.000000  0   -1347255.729   -796950.127  -6714987.344
10 0 59837  22662.000000  0   -2230833.146   -693427.433  -6487080.526
10 0 59837  22782.000000  0   -3073707.409   -562782.978  -6145968.993
10 0 59837  22902.000000  0   -3860789.662   -408117.936  -5697529.872
10 0 59837  23022.000000  0   -4577986.729   -233207.318  -5149506.920
10 0 59837  23142.000000  0   -5212455.754    -42417.407  -4511387.496
10 0 59837  23262.000000  0   -5752840.337    159391.252  -3794250.514
10 0 59837  23382.000000  0   -6189484.710    366975.055  -3010583.735
10 0 59837  23502.000000  0   -6514618.647    574829.477  -2174072.730
10 0 59837  23622.000000  0   -6722508.852    777320.591  -1299364.645
10 0 59837  23742.000000  0   -6809573.770    968821.459   -401810.386
10 0 59837  23862.000000  0   -6774454.572   1143850.770    502811.708
10 0 59837  23982.000000  0   -6618041.191   1297210.054   1398579.629
10 0 59837  24102.000000  0   -6343455.262   1424116.375   2269716.289
10 0 59837  24222.000000  0   -5955987.397   1520326.437   3100876.953
10 0 59837  24342.000000  0   -5462989.907   1582248.628   3877427.910
10 0 59837  24462.000000  0   -4873728.492   1607040.331   4585709.169
10 0 59837  24582.000000  0   -4199198.383   1592688.421   5213276.211
10 0 59837  24702.000000  0   -3451910.192   1538071.119   5749117.259
10 0 59837  24822.000000  0   -2645650.075   1443000.046   6183843.859
10 0 59837  24942.000000  0   -1795217.588   1308242.030   6509851.437
10 0 59837  25062.000000  0    -916147.820   1135519.214   6721445.358
10 0 59837  25182.000000  0     -24425.518    927488.497   6814933.251
10 0 59837  25302.000000  0     863805.010    687700.530   6788684.908
10 0 59837  25422.000000  0    1732530.907    420539.070   6643158.769
10 0 59837  25542.000000  0    2566158.071    131141.568   6380894.673
10 0 59837  25662.000000  0    3349791.081   -174698.319   6006473.618
10 0 59837  25782.000000  0    4069501.798   -490644.769   5526442.526
10 0 59837  25902.000000  0    4712580.727   -809948.358   4949205.481
10 0 59837  26022.000000  0    5267767.950  -1125587.033   4284882.867
10 0 59837  26142.000000  0    5725458.547  -1430416.627   3545138.409
10 0 59837  26262.000000  0    6077878.521  -1717328.289   2742976.753
10 0 59837  26382.000000  0    6319226.091  -1979408.620   1892514.028
10 0 59837  26502.000000  0    6445774.807  -2210099.019   1008726.138
99
